{
  "type": "FeatureCollection",
  "features": [
    {
      "type": "Feature",
      "properties": {
        "norad_id": 22490,
        "name": "SCD 1",
        "group": "resource",
        "lat": -22.471888993294503,
        "lon": 69.90526512113878,
        "alt_km": 755.5274156291334,
        "timestamp": "2025-12-27T13:34:48.946059+00:00",
        "meta_object_name": "SCD 1",
        "meta_object_id": "1993-009B",
        "meta_epoch": "2025-12-26T15:05:04.547040",
        "meta_mean_motion": 14.46008245,
        "meta_eccentricity": 0.0042179,
        "meta_inclination": 24.9674,
        "meta_ra_of_asc_node": 192.9471,
        "meta_arg_of_pericenter": 111.7084,
        "meta_mean_anomaly": 283.5703,
        "meta_ephemeris_type": 0,
        "meta_classification_type": "U",
        "meta_norad_cat_id": 22490,
        "meta_element_set_no": 999,
        "meta_rev_at_epoch": 73611,
        "meta_bstar": 9.5318e-05,
        "meta_mean_motion_dot": 5.34e-06,
        "meta_mean_motion_ddot": 0,
        "tle_line1": "1 22490U 93009B   25360.62852485  .00000534  00000+0  95318-4 0  9995",
        "tle_line2": "2 22490  24.9674 192.9471 0042179 111.7084 283.5703 14.46008245736119"
      },
      "geometry": {
        "type": "Point",
        "coordinates": [
          69.90526512113878,
          -22.471888993294503
        ]
      }
    },
    {
      "type": "Feature",
      "properties": {
        "norad_id": 25397,
        "name": "TECHSAT 1B (GO-32)",
        "group": "resource",
        "lat": -11.207271990155919,
        "lon": 163.322834182515,
        "alt_km": 815.9014688566449,
        "timestamp": "2025-12-27T13:34:48.946099+00:00",
        "meta_object_name": "TECHSAT 1B (GO-32)",
        "meta_object_id": "1998-043D",
        "meta_epoch": "2025-12-26T21:30:44.500032",
        "meta_mean_motion": 14.24381035,
        "meta_eccentricity": 0.0001601,
        "meta_inclination": 98.9935,
        "meta_ra_of_asc_node": 344.436,
        "meta_arg_of_pericenter": 33.7104,
        "meta_mean_anomaly": 326.4176,
        "meta_ephemeris_type": 0,
        "meta_classification_type": "U",
        "meta_norad_cat_id": 25397,
        "meta_element_set_no": 999,
        "meta_rev_at_epoch": 42680,
        "meta_bstar": 7.2286e-05,
        "meta_mean_motion_dot": 1.21e-06,
        "meta_mean_motion_ddot": 0,
        "tle_line1": "1 25397U 98043D   25360.89634838  .00000121  00000+0  72286-4 0  9997",
        "tle_line2": "2 25397  98.9935 344.4360 0001601  33.7104 326.4176 14.24381035426801"
      },
      "geometry": {
        "type": "Point",
        "coordinates": [
          163.322834182515,
          -11.207271990155919
        ]
      }
    },
    {
      "type": "Feature",
      "properties": {
        "norad_id": 25504,
        "name": "SCD 2",
        "group": "resource",
        "lat": -22.645522044445155,
        "lon": -65.95810593704584,
        "alt_km": 749.8255171855835,
        "timestamp": "2025-12-27T13:34:48.946116+00:00",
        "meta_object_name": "SCD 2",
        "meta_object_id": "1998-060A",
        "meta_epoch": "2025-12-27T04:18:28.238400",
        "meta_mean_motion": 14.45431341,
        "meta_eccentricity": 0.00170633,
        "meta_inclination": 24.9958,
        "meta_ra_of_asc_node": 52.8597,
        "meta_arg_of_pericenter": 105.275,
        "meta_mean_anomaly": 285.8296,
        "meta_ephemeris_type": 0,
        "meta_classification_type": "U",
        "meta_norad_cat_id": 25504,
        "meta_element_set_no": 999,
        "meta_rev_at_epoch": 43541,
        "meta_bstar": 9.0144824e-05,
        "meta_mean_motion_dot": 5.05e-06,
        "meta_mean_motion_ddot": 0,
        "tle_line1": "1 25504U 98060A   25361.17949350  .00000505  00000+0  90145-4 0  9996",
        "tle_line2": "2 25504  24.9958  52.8597 0017063 105.2750 285.8296 14.45431341435415"
      },
      "geometry": {
        "type": "Point",
        "coordinates": [
          -65.95810593704584,
          -22.645522044445155
        ]
      }
    },
    {
      "type": "Feature",
      "properties": {
        "norad_id": 25757,
        "name": "DLR-TUBSAT",
        "group": "resource",
        "lat": 76.43978698339191,
        "lon": -154.2915359241686,
        "alt_km": 703.8248091500654,
        "timestamp": "2025-12-27T13:34:48.946129+00:00",
        "meta_object_name": "DLR-TUBSAT",
        "meta_object_id": "1999-029B",
        "meta_epoch": "2025-12-17T13:22:10.787520",
        "meta_mean_motion": 14.52359578,
        "meta_eccentricity": 0.00141996,
        "meta_inclination": 98.6566,
        "meta_ra_of_asc_node": 336.2196,
        "meta_arg_of_pericenter": 177.8976,
        "meta_mean_anomaly": 182.2281,
        "meta_ephemeris_type": 0,
        "meta_classification_type": "U",
        "meta_norad_cat_id": 25757,
        "meta_element_set_no": 999,
        "meta_rev_at_epoch": 40688,
        "meta_bstar": 3.7650132e-05,
        "meta_mean_motion_dot": 1.05e-06,
        "meta_mean_motion_ddot": 0,
        "tle_line1": "1 25757U 99029B   25351.55706930  .00000105  00000+0  37650-4 0  9996",
        "tle_line2": "2 25757  98.6566 336.2196 0014199 177.8976 182.2281 14.52359578406886"
      },
      "geometry": {
        "type": "Point",
        "coordinates": [
          -154.2915359241686,
          76.43978698339191
        ]
      }
    },
    {
      "type": "Feature",
      "properties": {
        "norad_id": 25994,
        "name": "TERRA",
        "group": "resource",
        "lat": -76.14199020588833,
        "lon": -161.91377647004944,
        "alt_km": 699.8393780152765,
        "timestamp": "2025-12-27T13:34:48.946141+00:00",
        "meta_object_name": "TERRA",
        "meta_object_id": "1999-068A",
        "meta_epoch": "2025-12-27T06:10:03.159264",
        "meta_mean_motion": 14.60918159,
        "meta_eccentricity": 0.00033589,
        "meta_inclination": 97.9729,
        "meta_ra_of_asc_node": 52.4073,
        "meta_arg_of_pericenter": 65.3687,
        "meta_mean_anomaly": 9.8105,
        "meta_ephemeris_type": 0,
        "meta_classification_type": "U",
        "meta_norad_cat_id": 25994,
        "meta_element_set_no": 999,
        "meta_rev_at_epoch": 38450,
        "meta_bstar": 0.00012185194,
        "meta_mean_motion_dot": 5.52e-06,
        "meta_mean_motion_ddot": 0,
        "tle_line1": "1 25994U 99068A   25361.25698101  .00000552  00000+0  12185-3 0  9991",
        "tle_line2": "2 25994  97.9729  52.4073 0003358  65.3687   9.8105 14.60918159384506"
      },
      "geometry": {
        "type": "Point",
        "coordinates": [
          -161.91377647004944,
          -76.14199020588833
        ]
      }
    },
    {
      "type": "Feature",
      "properties": {
        "norad_id": 27004,
        "name": "MAROC-TUBSAT",
        "group": "resource",
        "lat": 77.92348638727822,
        "lon": 44.0868435769411,
        "alt_km": 999.2236025406237,
        "timestamp": "2025-12-27T13:34:48.946152+00:00",
        "meta_object_name": "MAROC-TUBSAT",
        "meta_object_id": "2001-056D",
        "meta_epoch": "2025-12-27T01:22:59.257056",
        "meta_mean_motion": 13.70253596,
        "meta_eccentricity": 0.00193244,
        "meta_inclination": 99.7918,
        "meta_ra_of_asc_node": 169.7536,
        "meta_arg_of_pericenter": 222.2128,
        "meta_mean_anomaly": 249.3798,
        "meta_ephemeris_type": 0,
        "meta_classification_type": "U",
        "meta_norad_cat_id": 27004,
        "meta_element_set_no": 999,
        "meta_rev_at_epoch": 20261,
        "meta_bstar": 3.1115265e-05,
        "meta_mean_motion_dot": -1.9e-07,
        "meta_mean_motion_ddot": 0,
        "tle_line1": "1 27004U 01056D   25361.05763029 -.00000019  00000+0  31115-4 0  9999",
        "tle_line2": "2 27004  99.7918 169.7536 0019324 222.2128 249.3798 13.70253596202617"
      },
      "geometry": {
        "type": "Point",
        "coordinates": [
          44.0868435769411,
          77.92348638727822
        ]
      }
    },
    {
      "type": "Feature",
      "properties": {
        "norad_id": 27424,
        "name": "AQUA",
        "group": "resource",
        "lat": -2.0799102103712634,
        "lon": 142.3797547854751,
        "alt_km": 690.5903733828663,
        "timestamp": "2025-12-27T13:34:48.946164+00:00",
        "meta_object_name": "AQUA",
        "meta_object_id": "2002-022A",
        "meta_epoch": "2025-12-26T23:47:53.598912",
        "meta_mean_motion": 14.61764548,
        "meta_eccentricity": 0.00018494,
        "meta_inclination": 98.4058,
        "meta_ra_of_asc_node": 322.1038,
        "meta_arg_of_pericenter": 99.7002,
        "meta_mean_anomaly": 302.1298,
        "meta_ephemeris_type": 0,
        "meta_classification_type": "U",
        "meta_norad_cat_id": 27424,
        "meta_element_set_no": 999,
        "meta_rev_at_epoch": 25811,
        "meta_bstar": 0.00027355086,
        "meta_mean_motion_dot": 1.315e-05,
        "meta_mean_motion_ddot": 0,
        "tle_line1": "1 27424U 02022A   25360.99159258  .00001315  00000+0  27355-3 0  9993",
        "tle_line2": "2 27424  98.4058 322.1038 0001849  99.7002 302.1298 14.61764548258111"
      },
      "geometry": {
        "type": "Point",
        "coordinates": [
          142.3797547854751,
          -2.0799102103712634
        ]
      }
    }
  ]
}